NORAD_CAT_ID,OBJECT_NAME,OBJECT_TYPE,EPOCH,MEAN_MOTION,ECCENTRICITY,INCLINATION,RA_OF_ASC_NODE,ARG_OF_PERICENTER,MEAN_ANOMALY,BSTAR,MEAN_MOTION_DOT,MEAN_MOTION_DDOT,TLE_LINE0,TLE_LINE1,TLE_LINE2,SEMIMAJOR_AXIS,PERIOD,APOGEE,PERIGEE,DECAYED
53893.0,STARLINK-5052,PAYLOAD,2024-03-14 02:45:28,15.0884433,0.0001984,53.2176,340.9216,98.3943,261.7274,0.00015315,2.15e-05,0.0,0 STARLINK-5052,1 53893U 22119H   24074.11490902  .00002150  00000-0  15315-3 0  9992,2 53893  53.2176 340.9216 0001984  98.3943 261.7274 15.08844330 81731,6917.867,95.437,541.105,538.36,0.0
53893.0,STARLINK-5052,PAYLOAD,2024-03-14 21:50:06,15.08835101,0.0001582,53.2192,337.3499,92.1441,267.9732,7.9988e-05,9.85e-06,0.0,0 STARLINK-5052,1 53893U 22119H   24074.90979737  .00000985  00000-0  79988-4 0  9998,2 53893  53.2192 337.3499 0001582  92.1441 267.9732 15.08835101 82274,6917.895,95.438,540.855,538.666,0.0
53893.0,STARLINK-5052,PAYLOAD,2024-03-15 02:36:15,15.08842043,0.0001465,53.2172,336.4604,88.7874,271.3286,0.00012173,1.65e-05,0.0,0 STARLINK-5052,1 53893U 22119H   24075.10851218  .00001650  00000-0  12173-3 0  9996,2 53893  53.2172 336.4604 0001465  88.7874 271.3286 15.08842043 81883,6917.874,95.437,540.753,538.726,0.0
53893.0,STARLINK-5052,PAYLOAD,2024-03-16 00:51:39,15.08844081,0.0001429,53.2191,332.2951,108.583,251.5317,0.00011301,1.511e-05,0.0,0 STARLINK-5052,1 53893U 22119H   24076.03587050  .00001511  00000-0  11301-3 0  9997,2 53893  53.2191 332.2951 0001429 108.5830 251.5317 15.08844081 82448,6917.868,95.437,540.721,538.744,0.0
53893.0,STARLINK-5052,PAYLOAD,2024-03-16 21:31:40,15.08839041,0.0001537,53.2195,328.4291,85.03,275.0868,8.6324e-06,-1.51e-06,0.0,0 STARLINK-5052,1 53893U 22119H   24076.89699789 -.00000151  00000-0  86324-5 0  9993,2 53893  53.2195 328.4291 0001537  85.0300 275.0868 15.08839041 82573,6917.883,95.438,540.812,538.685,0.0
53893.0,STARLINK-5052,PAYLOAD,2024-03-17 02:17:50,15.0883845,0.0001406,53.2169,327.5486,91.8328,268.2825,-1.1537e-05,-4.72e-06,0.0,0 STARLINK-5052,1 53893U 22119H   24077.09572185 -.00000472  00000-0 -11537-4 0  9996,2 53893  53.2169 327.5486 0001406  91.8328 268.2825 15.08838450 82187,6917.885,95.438,540.723,538.777,0.0
53893.0,STARLINK-5052,PAYLOAD,2024-03-17 21:22:28,15.08844479,0.0001926,53.2187,323.9739,107.9017,252.2185,1.8583e-05,8e-08,0.0,0 STARLINK-5052,1 53893U 22119H   24077.89060293  .00000008  00000-0  18583-4 0  9997,2 53893  53.2187 323.9739 0001926 107.9017 252.2185 15.08844479 82729,6917.867,95.437,541.064,538.399,0.0
53893.0,STARLINK-5052,PAYLOAD,2024-03-18 02:08:37,15.08845269,0.0001465,53.2189,323.077,103.2915,256.8241,0.00016179,2.288e-05,0.0,0 STARLINK-5052,1 53893U 22119H   24078.08931836  .00002288  00000-0  16179-3 0  9999,2 53893  53.2189 323.0770 0001465 103.2915 256.8241 15.08845269 82339,6917.864,95.437,540.743,538.716,0.0
53893.0,STARLINK-5052,PAYLOAD,2024-03-18 21:13:14,15.08853827,0.0001273,53.2179,319.5091,104.202,255.9113,0.00016084,2.274e-05,0.0,0 STARLINK-5052,1 53893U 22119H   24078.88419100  .00002274  00000-0  16084-3 0  9992,2 53893  53.2179 319.5091 0001273 104.2020 255.9113 15.08853827 82875,6917.838,95.437,540.584,538.822,0.0
53893.0,STARLINK-5052,PAYLOAD,2024-03-19 01:59:23,15.08858089,0.0001357,53.2181,318.616,115.75,244.3632,0.00018774,2.703e-05,0.0,0 STARLINK-5052,1 53893U 22119H   24079.08290576  .00002703  00000-0  18774-3 0  9994,2 53893  53.2181 318.6160 0001357 115.7500 244.3632 15.08858089 82488,6917.825,95.436,540.629,538.751,0.0
53893.0,STARLINK-5052,PAYLOAD,2024-03-19 21:04:02,15.08844724,0.0001335,53.2178,315.0495,98.0577,262.0566,-3.2206e-05,-8.01e-06,0.0,0 STARLINK-5052,1 53893U 22119H   24079.87780518 -.00000801  00000-0 -32206-4 0  9997,2 53893  53.2178 315.0495 0001335  98.0577 262.0566 15.08844724 82607,6917.866,95.437,540.654,538.807,0.0
53893.0,STARLINK-5052,PAYLOAD,2024-03-20 22:30:12,15.08850138,0.0001228,53.2177,310.2949,95.7276,264.3856,-7.8023e-05,-1.53e-05,0.0,0 STARLINK-5052,1 53893U 22119H   24080.93764075 -.00001530  00000-0 -78023-4 0  9993,2 53893  53.2177 310.2949 0001228  95.7276 264.3856 15.08850138 83185,6917.849,95.437,540.564,538.865,0.0
53893.0,STARLINK-5052,PAYLOAD,2024-03-21 00:05:35,15.08853727,0.0001251,53.2176,309.9962,97.1366,262.9769,-6.228e-05,-1.279e-05,0.0,0 STARLINK-5052,1 53893U 22119H   24081.00387762 -.00001279  00000-0 -62280-4 0  9994,2 53893  53.2176 309.9962 0001251  97.1366 262.9769 15.08853727 82774,6917.838,95.437,540.569,538.838,0.0
53893.0,STARLINK-5052,PAYLOAD,2024-03-21 08:02:30,15.08853551,0.0001177,53.217,308.5082,82.4836,277.629,-5.6693e-05,-1.19e-05,0.0,0 STARLINK-5052,1 53893U 22119H   24081.33507490 -.00001190  00000-0 -56693-4 0  9995,2 53893  53.2170 308.5082 0001177  82.4836 277.6290 15.08853551 83242,6917.839,95.437,540.518,538.89,0.0
53893.0,STARLINK-5052,PAYLOAD,2024-03-21 20:45:36,15.08840213,0.0001396,53.217,306.1309,82.019,278.0961,0.00016094,2.274e-05,0.0,0 STARLINK-5052,1 53893U 22119H   24081.86500236  .00002274  00000-0  16094-3 0  9996,2 53893  53.2170 306.1309 0001396  82.0190 278.0961 15.08840213 82903,6917.88,95.438,540.71,538.779,0.0
53893.0,STARLINK-5052,PAYLOAD,2024-03-21 22:20:59,15.08843442,0.0001439,53.2173,305.8338,86.2403,273.8754,0.00020136,2.918e-05,0.0,0 STARLINK-5052,1 53893U 22119H   24081.93123983  .00002918  00000-0  20136-3 0  9991,2 53893  53.2173 305.8338 0001439  86.2403 273.8754 15.08843442 83333,6917.87,95.437,540.73,538.739,0.0
53893.0,STARLINK-5052,PAYLOAD,2024-03-21 23:56:22,15.08846168,0.0001431,53.2168,305.5347,72.1525,287.9623,0.00022907,3.36e-05,0.0,0 STARLINK-5052,1 53893U 22119H   24081.99747957  .00003360  00000-0  22907-3 0  9990,2 53893  53.2168 305.5347 0001431  72.1525 287.9623 15.08846168 83345,6917.862,95.437,540.716,538.737,0.0
53893.0,STARLINK-5052,PAYLOAD,2024-03-22 22:11:46,15.08843308,0.0001791,53.2181,301.3694,52.7156,307.3999,0.00016477,2.335e-05,0.0,0 STARLINK-5052,1 53893U 22119H   24082.92484074  .00002335  00000-0  16477-3 0  9998,2 53893  53.2181 301.3694 0001791  52.7156 307.3999 15.08843308 83483,6917.87,95.437,540.974,538.496,0.0
53893.0,STARLINK-5052,PAYLOAD,2024-03-22 23:47:09,15.08846056,0.0001654,53.2175,301.0705,55.4338,304.6811,0.00025695,3.804e-05,0.0,0 STARLINK-5052,1 53893U 22119H   24082.99107884  .00003804  00000-0  25695-3 0  9990,2 53893  53.2175 301.0705 0001654  55.4338 304.6811 15.08846056 83077,6917.862,95.437,540.871,538.583,0.0
53893.0,STARLINK-5052,PAYLOAD,2024-03-23 20:27:10,15.0884404,0.0001451,53.2174,297.2063,82.1169,277.9988,1.8003e-05,-1e-08,0.0,0 STARLINK-5052,1 53893U 22119H   24083.85220001 -.00000001  00000-0  18003-4 0  9996,2 53893  53.2174 297.2063 0001451  82.1169 277.9988 15.08844040 83206,6917.868,95.437,540.737,538.729,0.0
53893.0,STARLINK-5052,PAYLOAD,2024-03-24 13:56:24,15.08847438,0.0001538,53.2169,293.936,91.835,268.2818,0.00012701,1.734e-05,0.0,0 STARLINK-5052,1 53893U 22119H   24084.58084118  .00001734  00000-0  12701-3 0  9995,2 53893  53.2169 293.9360 0001538  91.8350 268.2818 15.08847438 83735,6917.858,95.437,540.787,538.659,0.0
53893.0,STARLINK-5052,PAYLOAD,2024-03-24 20:17:56,15.0886203,0.0001436,53.2168,292.7492,93.2732,266.8424,0.00033931,5.119e-05,0.0,0 STARLINK-5052,1 53893U 22119H   24084.84579310  .00005119  00000-0  33931-3 0  9996,2 53893  53.2168 292.7492 0001436  93.2732 266.8424 15.08862030 83354,6917.813,95.436,540.671,538.685,0.0
53893.0,STARLINK-5052,PAYLOAD,2024-03-25 07:25:38,15.0885062,0.0001276,53.215,290.6673,87.7372,272.3766,0.00026866,3.992e-05,0.0,0 STARLINK-5052,1 53893U 22119H   24085.30947489  .00003992  00000-0  26866-3 0  9990,2 53893  53.2150 290.6673 0001276  87.7372 272.3766 15.08850620 83424,6917.848,95.437,540.596,538.83,0.0
53893.0,STARLINK-5052,PAYLOAD,2024-03-25 20:08:44,15.08842018,0.0001348,53.2172,288.2877,90.1011,270.0135,5.7021e-05,6.2e-06,0.0,0 STARLINK-5052,1 53893U 22119H   24085.83940264  .00000620  00000-0  57021-4 0  9995,2 53893  53.2172 288.2877 0001348  90.1011 270.0135 15.08842018 83501,6917.874,95.437,540.672,538.807,0.0
53893.0,STARLINK-5052,PAYLOAD,2024-03-26 13:37:59,15.08829374,0.0001248,53.2166,285.0145,96.352,263.7614,5.369e-05,5.66e-06,0.0,0 STARLINK-5052,1 53893U 22119H   24086.56805060  .00000566  00000-0  53690-4 0  9997,2 53893  53.2166 285.0145 0001248  96.3520 263.7614 15.08829374 84039,6917.913,95.438,540.641,538.915,0.0
53893.0,STARLINK-5052,PAYLOAD,2024-03-26 19:59:31,15.08832837,0.0001285,53.2155,283.8281,87.0398,273.0741,-8.0492e-05,-1.568e-05,0.0,0 STARLINK-5052,1 53893U 22119H   24086.83300900 -.00001568  00000-0 -80492-4 0  9995,2 53893  53.2155 283.8281 0001285  87.0398 273.0741 15.08832837 83655,6917.902,95.438,540.656,538.878,0.0
53893.0,STARLINK-5052,PAYLOAD,2024-03-27 05:31:50,15.08836767,0.0001314,53.2161,282.0425,87.5395,272.5747,4.7197e-05,4.63e-06,0.0,0 STARLINK-5052,1 53893U 22119H   24087.23044859  .00000463  00000-0  47197-4 0  9994,2 53893  53.2161 282.0425 0001314  87.5395 272.5747 15.08836767 84138,6917.89,95.438,540.664,538.846,0.0
53893.0,STARLINK-5052,PAYLOAD,2024-03-27 18:14:55,15.0884219,0.0001323,53.2156,279.6607,87.2361,272.8783,0.00021831,3.188e-05,0.0,0 STARLINK-5052,1 53893U 22119H   24087.76036668  .00003188  00000-0  21831-3 0  9994,2 53893  53.2156 279.6607 0001323  87.2361 272.8783 15.08842190 83797,6917.874,95.437,540.654,538.823,0.0
53893.0,STARLINK-5052,PAYLOAD,2024-03-27 23:01:04,15.08854109,0.0001239,53.2164,278.7727,98.0683,262.0449,0.00036933,5.597e-05,0.0,0 STARLINK-5052,1 53893U 22119H   24087.95907921  .00005597  00000-0  36933-3 0  9999,2 53893  53.2164 278.7727 0001239  98.0683 262.0449 15.08854109 83829,6917.837,95.437,540.559,538.845,0.0
53893.0,STARLINK-5052,PAYLOAD,2024-03-28 11:44:11,15.08834391,0.0001963,53.2165,276.39,74.1418,285.979,0.00015729,2.216e-05,0.0,0 STARLINK-5052,1 53893U 22119H   24088.48901693  .00002216  00000-0  15729-3 0  9993,2 53893  53.2165 276.3900 0001963  74.1418 285.9790 15.08834391 83905,6917.898,95.438,541.121,538.405,0.0
